GLOBALSTAR M094         
1 39074U 13005C   24163.43724994 -.00000077  00000+0  15067-3 0  9996
2 39074  51.9951 230.9430 0000614 157.2236 202.8657 12.62266923525554
GLOBALSTAR M096         
1 39075U 13005D   24163.60875830 -.00000070  00000+0  18587-3 0  9995
2 39075  52.0081 278.6449 0000988 136.6247 223.4697 12.62266612524497
GLOBALSTAR M078         
1 39076U 13005E   24163.50346965 -.00000209  00000+0 -58693-3 0  9994
2 39076  51.9895   3.9808 0001746  84.1945 275.9121 12.62274389523103
GLOBALSTAR M095         
1 39077U 13005F   24163.29173599 -.00000084  00000+0  11277-3 0  9999
2 39077  51.9819   2.0024 0001465 101.3065 258.7966 12.62263867522938
GLOBALSTAR M087         
1 52888U 22064A   24163.42987424 -.00000080  00000+0  92828-4 0  9992
2 52888  51.9748 228.4580 0009115 351.9803   8.0950 13.37576428 96756
